{
    "links": {
        "self": "http://www.neowsapp.com/rest/v1/neo/3703254?api_key=iIulBulltgU6a56xZRHN4H3l9WmuAYTsLGpBGhQ2"
    },
    "id": "3703254",
    "neo_reference_id": "3703254",
    "name": "(2014 YK42)",
    "designation": "2014 YK42",
    "nasa_jpl_url": "http://ssd.jpl.nasa.gov/sbdb.cgi?sstr=3703254",
    "absolute_magnitude_h": 24.8,
    "estimated_diameter": {
        "kilometers": {
            "estimated_diameter_min": 0.0291443905,
            "estimated_diameter_max": 0.0651688382
        },
        "meters": {
            "estimated_diameter_min": 29.1443904535,
            "estimated_diameter_max": 65.1688382168
        },
        "miles": {
            "estimated_diameter_min": 0.018109479,
            "estimated_diameter_max": 0.0404940262
        },
        "feet": {
            "estimated_diameter_min": 95.6180819754,
            "estimated_diameter_max": 213.8085311752
        }
    },
    "is_potentially_hazardous_asteroid": false,
    "close_approach_data": [
        {
            "close_approach_date": "2014-12-27",
            "close_approach_date_full": "2014-Dec-27 00:47",
            "epoch_date_close_approach": 1419641220000,
            "relative_velocity": {
                "kilometers_per_second": "12.6126357148",
                "kilometers_per_hour": "45405.4885731752",
                "miles_per_hour": "28213.204830371"
            },
            "miss_distance": {
                "astronomical": "0.0371015047",
                "lunar": "14.4324853283",
                "kilometers": "5550306.076914989",
                "miles": "3448800.2732012882"
            },
            "orbiting_body": "Earth"
        }
    ],
    "orbital_data": {
        "orbit_id": "3",
        "orbit_determination_date": "2017-04-06 08:36:33",
        "first_observation_date": "2014-12-30",
        "last_observation_date": "2015-01-01",
        "data_arc_in_days": 2,
        "observations_used": 36,
        "orbit_uncertainty": "8",
        "minimum_orbit_intersection": ".0364141",
        "jupiter_tisserand_invariant": "3.919",
        "epoch_osculation": "2457022.5",
        "eccentricity": ".4796237227186849",
        "semi_major_axis": "1.774913524184316",
        "inclination": "15.52588583509024",
        "ascending_node_longitude": "280.6909728583259",
        "orbital_period": "863.7025956047789",
        "perihelion_distance": ".9236228922112938",
        "perihelion_argument": "132.0523434819703",
        "aphelion_distance": "2.626204156157339",
        "perihelion_time": "2456985.157036475698",
        "mean_anomaly": "15.56492586355536",
        "mean_motion": ".4168101402403706",
        "equinox": "J2000",
        "orbit_class": {
            "orbit_class_type": "APO",
            "orbit_class_description": "Near-Earth asteroid orbits which cross the Earth’s orbit similar to that of 1862 Apollo",
            "orbit_class_range": "a (semi-major axis) > 1.0 AU; q (perihelion) < 1.017 AU"
        }
    },
    "is_sentry_object": false
}